0 DELTA 1 DEB
1 21565U 75052HK  13280.07968875  .00000712  00000-0  25363-2 0  4505
2 21565 099.8540 214.8536 0383426 006.6084 057.0541 12.76804633 42036
0 DELTA 1 DEB
1 21565U 75052HK  13282.82308281  .00000635  00000-0  22748-2 0  4518
2 21565 099.8543 217.2429 0383293 000.7156 066.9982 12.76810079 42381
0 DELTA 1 DEB
1 21565U 75052HK  13288.70940000  .00000690  00000-0  24642-2 0  4530
2 21565 099.8552 222.3700 0382902 348.0904 123.4650 12.76818963 43130
0 DELTA 1 DEB
1 21565U 75052HK  13290.72217317 -.00000113  00000-0  10000-3 0  4549
2 21565 099.8547 224.1248 0384464 343.5760 015.3562 12.76812869 43394
0 DELTA 1 DEB
1 21565U 75052HK  13290.73589459  .00000605  00000-0  21771-2 0  4540
2 21565 099.8553 224.1352 0382725 343.7373 078.3006 12.76823273 43390
0 DELTA 1 DEB
1 21565U 75052HK  13293.33511914  .00000666  00000-0  23866-2 0  4555
2 21565 099.8552 226.3995 0382441 338.1706 145.7302 12.76827112 43720
